{
  "type": "FeatureCollection",
  "features": [
    {
      "type": "Feature",
      "properties": {
        "norad_id": 40118,
        "name": "GAOFEN-2",
        "group": "resource",
        "lat": 48.614642945647645,
        "lon": -118.60803921351761,
        "alt_km": 618.0059902419798,
        "timestamp": "2025-12-18T23:35:48.704300+00:00",
        "meta_object_name": "GAOFEN-2",
        "meta_object_id": "2014-049A",
        "meta_epoch": "2025-12-18T14:53:59.301600",
        "meta_mean_motion": 14.80620765,
        "meta_eccentricity": 0.00087232,
        "meta_inclination": 98.0385,
        "meta_ra_of_asc_node": 51.8,
        "meta_arg_of_pericenter": 96.6286,
        "meta_mean_anomaly": 263.5919,
        "meta_ephemeris_type": 0,
        "meta_classification_type": "U",
        "meta_norad_cat_id": 40118,
        "meta_element_set_no": 999,
        "meta_rev_at_epoch": 61251,
        "meta_bstar": 0.00011549338,
        "meta_mean_motion_dot": 8.33e-06,
        "meta_mean_motion_ddot": 0,
        "tle_line1": "1 40118U 14049A   25352.62082525  .00000833  00000+0  11549-3 0  9995",
        "tle_line2": "2 40118  98.0385  51.8000 0008723  96.6286 263.5919 14.80620765612519"
      },
      "geometry": {
        "type": "Point",
        "coordinates": [
          -118.60803921351761,
          48.614642945647645
        ]
      }
    },
    {
      "type": "Feature",
      "properties": {
        "norad_id": 40143,
        "name": "YAOGAN-21",
        "group": "resource",
        "lat": -19.16731553693535,
        "lon": 38.53500904961459,
        "alt_km": 494.9361404555666,
        "timestamp": "2025-12-18T23:35:48.704311+00:00",
        "meta_object_name": "YAOGAN-21",
        "meta_object_id": "2014-053A",
        "meta_epoch": "2025-12-18T14:13:29.387136",
        "meta_mean_motion": 15.23737983,
        "meta_eccentricity": 0.00092055,
        "meta_inclination": 97.1754,
        "meta_ra_of_asc_node": 35.6516,
        "meta_arg_of_pericenter": 22.2714,
        "meta_mean_anomaly": 337.8922,
        "meta_ephemeris_type": 0,
        "meta_classification_type": "U",
        "meta_norad_cat_id": 40143,
        "meta_element_set_no": 999,
        "meta_rev_at_epoch": 62743,
        "meta_bstar": 0.00021340716,
        "meta_mean_motion_dot": 5.067e-05,
        "meta_mean_motion_ddot": 0,
        "tle_line1": "1 40143U 14053A   25352.59270124  .00005067  00000+0  21341-3 0  9993",
        "tle_line2": "2 40143  97.1754  35.6516 0009205  22.2714 337.8922 15.23737983627431"
      },
      "geometry": {
        "type": "Point",
        "coordinates": [
          38.53500904961459,
          -19.16731553693535
        ]
      }
    },
    {
      "type": "Feature",
      "properties": {
        "norad_id": 40275,
        "name": "YAOGAN-22",
        "group": "resource",
        "lat": -4.4828042139800415,
        "lon": -44.362127078555034,
        "alt_km": 1202.13089835973,
        "timestamp": "2025-12-18T23:35:48.704321+00:00",
        "meta_object_name": "YAOGAN-22",
        "meta_object_id": "2014-063A",
        "meta_epoch": "2025-12-18T09:53:06.138240",
        "meta_mean_motion": 13.1552294,
        "meta_eccentricity": 0.00059967,
        "meta_inclination": 100.7426,
        "meta_ra_of_asc_node": 135.9115,
        "meta_arg_of_pericenter": 234.3626,
        "meta_mean_anomaly": 125.6928,
        "meta_ephemeris_type": 0,
        "meta_classification_type": "U",
        "meta_norad_cat_id": 40275,
        "meta_element_set_no": 999,
        "meta_rev_at_epoch": 53604,
        "meta_bstar": 1.6059282e-05,
        "meta_mean_motion_dot": -4.1e-07,
        "meta_mean_motion_ddot": 0,
        "tle_line1": "1 40275U 14063A   25352.41187660 -.00000041  00000+0  16059-4 0  9992",
        "tle_line2": "2 40275 100.7426 135.9115 0005996 234.3626 125.6928 13.15522940536043"
      },
      "geometry": {
        "type": "Point",
        "coordinates": [
          -44.362127078555034,
          -4.4828042139800415
        ]
      }
    },
    {
      "type": "Feature",
      "properties": {
        "norad_id": 40298,
        "name": "ASNARO",
        "group": "resource",
        "lat": -63.36611928856174,
        "lon": 83.7246450271842,
        "alt_km": 518.0829169110384,
        "timestamp": "2025-12-18T23:35:48.704331+00:00",
        "meta_object_name": "ASNARO",
        "meta_object_id": "2014-070A",
        "meta_epoch": "2025-12-18T14:23:51.729792",
        "meta_mean_motion": 15.19620212,
        "meta_eccentricity": 0.00057635,
        "meta_inclination": 97.3653,
        "meta_ra_of_asc_node": 68.4035,
        "meta_arg_of_pericenter": 105.8485,
        "meta_mean_anomaly": 254.3386,
        "meta_ephemeris_type": 0,
        "meta_classification_type": "U",
        "meta_norad_cat_id": 40298,
        "meta_element_set_no": 999,
        "meta_rev_at_epoch": 61658,
        "meta_bstar": 0.00056341003,
        "meta_mean_motion_dot": 0.0001195,
        "meta_mean_motion_ddot": 0,
        "tle_line1": "1 40298U 14070A   25352.59990428  .00011950  00000+0  56341-3 0  9995",
        "tle_line2": "2 40298  97.3653  68.4035 0005763 105.8485 254.3386 15.19620212616582"
      },
      "geometry": {
        "type": "Point",
        "coordinates": [
          83.7246450271842,
          -63.36611928856174
        ]
      }
    },
    {
      "type": "Feature",
      "properties": {
        "norad_id": 40310,
        "name": "YAOGAN-24",
        "group": "resource",
        "lat": 14.471554855342438,
        "lon": 121.99693330501589,
        "alt_km": 644.9224081298435,
        "timestamp": "2025-12-18T23:35:48.704342+00:00",
        "meta_object_name": "YAOGAN-24",
        "meta_object_id": "2014-072A",
        "meta_epoch": "2025-12-18T15:23:48.450336",
        "meta_mean_motion": 14.76188551,
        "meta_eccentricity": 0.00149819,
        "meta_inclination": 98.1216,
        "meta_ra_of_asc_node": 123.7657,
        "meta_arg_of_pericenter": 120.215,
        "meta_mean_anomaly": 240.0545,
        "meta_ephemeris_type": 0,
        "meta_classification_type": "U",
        "meta_norad_cat_id": 40310,
        "meta_element_set_no": 999,
        "meta_rev_at_epoch": 59708,
        "meta_bstar": 8.3630458e-05,
        "meta_mean_motion_dot": 5.26e-06,
        "meta_mean_motion_ddot": 0,
        "tle_line1": "1 40310U 14072A   25352.64153299  .00000526  00000+0  83630-4 0  9994",
        "tle_line2": "2 40310  98.1216 123.7657 0014981 120.2150 240.0545 14.76188551597087"
      },
      "geometry": {
        "type": "Point",
        "coordinates": [
          121.99693330501589,
          14.471554855342438
        ]
      }
    },
    {
      "type": "Feature",
      "properties": {
        "norad_id": 40336,
        "name": "CBERS 4",
        "group": "resource",
        "lat": -74.81120533901372,
        "lon": 83.45246148138527,
        "alt_km": 781.9110519261903,
        "timestamp": "2025-12-18T23:35:48.704352+00:00",
        "meta_object_name": "CBERS 4",
        "meta_object_id": "2014-079A",
        "meta_epoch": "2025-12-18T15:35:31.920864",
        "meta_mean_motion": 14.35519941,
        "meta_eccentricity": 0.00017706,
        "meta_inclination": 98.3309,
        "meta_ra_of_asc_node": 50.4647,
        "meta_arg_of_pericenter": 106.3786,
        "meta_mean_anomaly": 253.7595,
        "meta_ephemeris_type": 0,
        "meta_classification_type": "U",
        "meta_norad_cat_id": 40336,
        "meta_element_set_no": 999,
        "meta_rev_at_epoch": 57805,
        "meta_bstar": 6.0762569e-05,
        "meta_mean_motion_dot": 1.33e-06,
        "meta_mean_motion_ddot": 0,
        "tle_line1": "1 40336U 14079A   25352.64967501  .00000133  00000+0  60763-4 0  9994",
        "tle_line2": "2 40336  98.3309  50.4647 0001770 106.3786 253.7595 14.35519941578055"
      },
      "geometry": {
        "type": "Point",
        "coordinates": [
          83.45246148138527,
          -74.81120533901372
        ]
      }
    },
    {
      "type": "Feature",
      "properties": {
        "norad_id": 40362,
        "name": "YAOGAN-26",
        "group": "resource",
        "lat": 47.450318744058535,
        "lon": -14.328237467366696,
        "alt_km": 440.44614384485794,
        "timestamp": "2025-12-18T23:35:48.704362+00:00",
        "meta_object_name": "YAOGAN-26",
        "meta_object_id": "2014-088A",
        "meta_epoch": "2025-12-18T15:35:23.223840",
        "meta_mean_motion": 15.39502623,
        "meta_eccentricity": 0.00054524,
        "meta_inclination": 97.0634,
        "meta_ra_of_asc_node": 353.1133,
        "meta_arg_of_pericenter": 12.1806,
        "meta_mean_anomaly": 347.9571,
        "meta_ephemeris_type": 0,
        "meta_classification_type": "U",
        "meta_norad_cat_id": 40362,
        "meta_element_set_no": 999,
        "meta_rev_at_epoch": 60985,
        "meta_bstar": 0.0003693085,
        "meta_mean_motion_dot": 0.00014434,
        "meta_mean_motion_ddot": 0,
        "tle_line1": "1 40362U 14088A   25352.64957435  .00014434  00000+0  36931-3 0  9996",
        "tle_line2": "2 40362  97.0634 353.1133 0005452  12.1806 347.9571 15.39502623609859"
      },
      "geometry": {
        "type": "Point",
        "coordinates": [
          -14.328237467366696,
          47.450318744058535
        ]
      }
    }
  ]
}